NORAD_CAT_ID,OBJECT_NAME,OBJECT_TYPE,EPOCH,MEAN_MOTION,ECCENTRICITY,INCLINATION,RA_OF_ASC_NODE,ARG_OF_PERICENTER,MEAN_ANOMALY,BSTAR,MEAN_MOTION_DOT,MEAN_MOTION_DDOT,TLE_LINE0,TLE_LINE1,TLE_LINE2,SEMIMAJOR_AXIS,PERIOD,APOGEE,PERIGEE,DECAYED
49152.0,STARLINK-3081,PAYLOAD,2023-05-29 17:34:44,14.98331152,0.0003298,69.9988,293.5069,270.5724,89.5057,5.4546e-05,5.58e-06,0.0,0 STARLINK-3081,1 49152U 21082Y   23149.73245957  .00000558  00000-0  54546-4 0  9991,2 49152  69.9988 293.5069 0003298 270.5724  89.5057 14.98331152 96067,6950.189,96.107,574.347,569.762,0.0
49152.0,STARLINK-3081,PAYLOAD,2023-05-29 19:10:52,14.9833058,0.0003139,69.9991,293.3386,267.4831,92.5969,6.4452e-05,6.76e-06,0.0,0 STARLINK-3081,1 49152U 21082Y   23149.79921972  .00000676  00000-0  64452-4 0  9993,2 49152  69.9991 293.3386 0003139 267.4831  92.5969 14.98330580 96069,6950.191,96.107,574.238,569.874,0.0
49152.0,STARLINK-3081,PAYLOAD,2023-05-30 11:12:13,14.98330271,0.0003203,69.9989,291.6553,271.2205,88.8587,3.2448e-06,-5.4e-07,0.0,0 STARLINK-3081,1 49152U 21082Y   23150.46682159 -.00000054  00000-0  32448-5 0  9992,2 49152  69.9989 291.6553 0003203 271.2205  88.8587 14.98330271 96165,6950.192,96.107,574.283,569.831,0.0
49152.0,STARLINK-3081,PAYLOAD,2023-05-30 19:12:53,14.9833365,0.0003289,69.999,290.8133,270.7614,89.3168,1.7933e-05,1.21e-06,0.0,0 STARLINK-3081,1 49152U 21082Y   23150.80061842  .00000121  00000-0  17933-4 0  9995,2 49152  69.9990 290.8133 0003289 270.7614  89.3168 14.98333650 96226,6950.182,96.107,574.333,569.761,0.0
49152.0,STARLINK-3081,PAYLOAD,2023-05-31 14:26:30,14.98332272,0.0003293,69.999,288.7933,270.9261,89.1521,6.5433e-05,6.88e-06,0.0,0 STARLINK-3081,1 49152U 21082Y   23151.60173720  .00000688  00000-0  65433-4 0  9999,2 49152  69.9990 288.7933 0003293 270.9261  89.1521 14.98332272 96337,6950.186,96.107,574.34,569.762,0.0
49152.0,STARLINK-3081,PAYLOAD,2023-05-31 19:14:53,14.98337215,0.0003284,69.9991,288.2885,271.0371,89.0412,8.4113e-05,9.11e-06,0.0,0 STARLINK-3081,1 49152U 21082Y   23151.80201289  .00000911  00000-0  84113-4 0  9998,2 49152  69.9991 288.2885 0003284 271.0371  89.0412 14.98337215 96366,6950.171,96.107,574.318,569.753,0.0
49152.0,STARLINK-3081,PAYLOAD,2023-06-01 11:16:15,14.98329959,0.0003245,69.9991,286.6052,270.7765,89.3022,8.8695e-06,1.3e-07,0.0,0 STARLINK-3081,1 49152U 21082Y   23152.46961852  .00000013  00000-0  88695-5 0  9993,2 49152  69.9991 286.6052 0003245 270.7765  89.3022 14.98329959 96461,6950.193,96.107,574.313,569.803,0.0
49152.0,STARLINK-3081,PAYLOAD,2023-06-01 12:52:23,14.9832998,0.0003247,69.9991,286.4369,270.7526,89.3261,9.255e-06,1.7e-07,0.0,0 STARLINK-3081,1 49152U 21082Y   23152.53637856  .00000017  00000-0  92550-5 0  9994,2 49152  69.9991 286.4369 0003247 270.7526  89.3261 14.98329980 96488,6950.193,96.107,574.315,569.801,0.0
49152.0,STARLINK-3081,PAYLOAD,2023-06-02 12:54:24,14.98327727,0.0003049,69.9996,283.9123,272.6185,87.4625,-7.9091e-05,-1.037e-05,0.0,0 STARLINK-3081,1 49152U 21082Y   23153.53778240 -.00001037  00000-0 -79091-4 0  9997,2 49152  69.9996 283.9123 0003049 272.6185  87.4625 14.98327727 96621,6950.2,96.107,574.184,569.946,0.0
49152.0,STARLINK-3081,PAYLOAD,2023-06-02 17:42:48,14.98326125,0.0003041,69.9998,283.4084,268.6668,91.4143,-7.9554e-05,-1.042e-05,0.0,0 STARLINK-3081,1 49152U 21082Y   23153.73806345 -.00001042  00000-0 -79554-4 0  9997,2 49152  69.9998 283.4084 0003041 268.6668  91.4143 14.98326125 96662,6950.205,96.107,574.183,569.956,0.0
49152.0,STARLINK-3081,PAYLOAD,2023-06-03 12:56:25,14.98330511,0.0003192,69.9995,281.388,270.4016,89.6777,-4.417e-06,-1.46e-06,0.0,0 STARLINK-3081,1 49152U 21082Y   23154.53917969 -.00000146  00000-0 -44170-5 0  9992,2 49152  69.9995 281.3880 0003192 270.4016  89.6777 14.98330511 96773,6950.191,96.107,574.275,569.838,0.0
49152.0,STARLINK-3081,PAYLOAD,2023-06-03 17:44:49,14.9833114,0.0003187,69.9996,280.883,270.4122,89.6672,4.299e-06,-4.2e-07,0.0,0 STARLINK-3081,1 49152U 21082Y   23154.73945906 -.00000042  00000-0  42990-5 0  9998,2 49152  69.9996 280.8830 0003187 270.4122  89.6672 14.98331140 96813,6950.189,96.107,574.269,569.839,0.0
49152.0,STARLINK-3081,PAYLOAD,2023-06-03 19:20:57,14.98332337,0.0003172,69.9996,280.7146,270.1362,89.9434,1.9257e-05,1.37e-06,0.0,0 STARLINK-3081,1 49152U 21082Y   23154.80621791  .00000137  00000-0  19257-4 0  9992,2 49152  69.9996 280.7146 0003172 270.1362  89.9434 14.98332337 96817,6950.186,96.107,574.255,569.846,0.0
49152.0,STARLINK-3081,PAYLOAD,2023-06-04 14:34:34,14.98325395,0.0003294,69.9995,278.6947,270.4342,89.644,7.0265e-05,7.45e-06,0.0,0 STARLINK-3081,1 49152U 21082Y   23155.60734255  .00000745  00000-0  70265-4 0  9992,2 49152  69.9995 278.6947 0003294 270.4342  89.6440 14.98325395 96930,6950.207,96.107,574.362,569.783,0.0
49152.0,STARLINK-3081,PAYLOAD,2023-06-04 17:46:50,14.98328596,0.0003231,69.9996,278.3572,269.8552,90.2237,9.9607e-05,1.096e-05,0.0,0 STARLINK-3081,1 49152U 21082Y   23155.74085990  .00001096  00000-0  99607-4 0  9993,2 49152  69.9996 278.3572 0003231 269.8552  90.2237 14.98328596 96969,6950.197,96.107,574.308,569.817,0.0
49152.0,STARLINK-3081,PAYLOAD,2023-06-05 14:36:34,14.98338509,0.0003322,69.9993,276.1684,266.9719,93.106,0.00013125,1.474e-05,0.0,0 STARLINK-3081,1 49152U 21082Y   23156.60873131  .00001474  00000-0  13125-3 0  9991,2 49152  69.9993 276.1684 0003322 266.9719  93.1060 14.98338509 97085,6950.167,96.106,574.34,569.723,0.0
49152.0,STARLINK-3081,PAYLOAD,2023-06-05 19:24:58,14.98341547,0.0003355,69.9995,275.6634,268.507,91.5704,0.00014182,1.6e-05,0.0,0 STARLINK-3081,1 49152U 21082Y   23156.80900823  .00001600  00000-0  14182-3 0  9997,2 49152  69.9995 275.6634 0003355 268.5070  91.5704 14.98341547 97117,6950.157,96.106,574.354,569.69,0.0
49152.0,STARLINK-3081,PAYLOAD,2023-06-06 08:14:03,14.98331673,0.0003378,69.9986,274.3157,267.1894,92.8879,4.9341e-05,4.96e-06,0.0,0 STARLINK-3081,1 49152U 21082Y   23157.34309581  .00000496  00000-0  49341-4 0  9999,2 49152  69.9986 274.3157 0003378 267.1894  92.8879 14.98331673 97203,6950.188,96.107,574.4,569.705,0.0
49152.0,STARLINK-3081,PAYLOAD,2023-06-06 11:26:19,14.98332533,0.0003321,69.9988,273.9793,268.1425,91.9354,5.721e-05,5.9e-06,0.0,0 STARLINK-3081,1 49152U 21082Y   23157.47661501  .00000590  00000-0  57210-4 0  9995,2 49152  69.9988 273.9793 0003321 268.1425  91.9354 14.98332533 97210,6950.185,96.107,574.358,569.742,0.0
49152.0,STARLINK-3081,PAYLOAD,2023-06-06 17:50:51,14.98337465,0.0003246,69.9996,273.307,270.3324,89.7463,4.7264e-05,4.71e-06,0.0,0 STARLINK-3081,1 49152U 21082Y   23157.74365158  .00000471  00000-0  47264-4 0  9990,2 49152  69.9996 273.3070 0003246 270.3324  89.7463 14.98337465 97259,6950.17,96.107,574.291,569.779,0.0
49152.0,STARLINK-3081,PAYLOAD,2023-06-07 06:39:56,14.98327956,0.0003233,69.9996,271.9605,270.2637,89.8152,-6.9086e-05,-9.17e-06,0.0,0 STARLINK-3081,1 49152U 21082Y   23158.27773990 -.00000917  00000-0 -69086-4 0  9999,2 49152  69.9996 271.9605 0003233 270.2637  89.8152 14.98327956 97349,6950.199,96.107,574.311,569.817,0.0
49152.0,STARLINK-3081,PAYLOAD,2023-06-07 08:16:04,14.98328227,0.0003235,69.9995,271.7922,270.2698,89.809,-6.3281e-05,-8.48e-06,0.0,0 STARLINK-3081,1 49152U 21082Y   23158.34449968 -.00000848  00000-0 -63281-4 0  9996,2 49152  69.9995 271.7922 0003235 270.2698  89.8090 14.98328227 97340,6950.198,96.107,574.312,569.815,0.0
49152.0,STARLINK-3081,PAYLOAD,2023-06-08 08:18:05,14.98332152,0.0003246,70.0003,269.2679,270.6586,89.4202,7.8207e-05,8.4e-06,0.0,0 STARLINK-3081,1 49152U 21082Y   23159.34589311  .00000840  00000-0  78207-4 0  9998,2 49152  70.0003 269.2679 0003246 270.6586  89.4202 14.98332152 97507,6950.186,96.107,574.307,569.795,0.0
49152.0,STARLINK-3081,PAYLOAD,2023-06-08 11:30:21,14.98330183,0.0003377,70.0004,268.9315,269.255,90.8222,4.5331e-05,4.48e-06,0.0,0 STARLINK-3081,1 49152U 21082Y   23159.47941488  .00000448  00000-0  45331-4 0  9995,2 49152  70.0004 268.9315 0003377 269.2550  90.8222 14.98330183 97512,6950.192,96.107,574.404,569.71,0.0
49152.0,STARLINK-3081,PAYLOAD,2023-06-08 13:06:29,14.98330579,0.0003327,70.0004,268.7631,268.0871,91.9907,4.7549e-05,4.74e-06,0.0,0 STARLINK-3081,1 49152U 21082Y   23159.54617453  .00000474  00000-0  47549-4 0  9997,2 49152  70.0004 268.7631 0003327 268.0871  91.9907 14.98330579 97521,6950.191,96.107,574.368,569.744,0.0
49152.0,STARLINK-3081,PAYLOAD,2023-06-09 06:43:58,14.9832186,0.0003482,69.9994,266.9111,270.0761,89.9999,-4.7121e-06,-1.49e-06,0.0,0 STARLINK-3081,1 49152U 21082Y   23160.28054153 -.00000149  00000-0 -47121-5 0  9990,2 49152  69.9994 266.9111 0003482 270.0761  89.9999 14.98321860 97646,6950.218,96.108,574.503,569.663,0.0
49152.0,STARLINK-3081,PAYLOAD,2023-06-09 13:08:31,14.98323534,0.0003334,69.9993,266.2377,269.8743,90.2034,1.122e-05,4.1e-07,0.0,0 STARLINK-3081,1 49152U 21082Y   23160.54758129  .00000041  00000-0  11220-4 0  9992,2 49152  69.9993 266.2377 0003334 269.8743  90.2034 14.98323534 97672,6950.213,96.107,574.395,569.761,0.0
49152.0,STARLINK-3081,PAYLOAD,2023-06-09 16:20:47,14.98324791,0.0003311,69.9993,265.901,270.1472,89.9308,2.2536e-05,1.76e-06,0.0,0 STARLINK-3081,1 49152U 21082Y   23160.68110074  .00000176  00000-0  22536-4 0  9999,2 49152  69.9993 265.9010 0003311 270.1472  89.9308 14.98324791 97698,6950.209,96.107,574.375,569.773,0.0
49152.0,STARLINK-3081,PAYLOAD,2023-06-10 00:21:27,14.9833012,0.0003273,69.9994,265.0594,270.2389,89.8395,2.2239e-05,1.72e-06,0.0,0 STARLINK-3081,1 49152U 21082Y   23161.01489829  .00000172  00000-0  22239-4 0  9990,2 49152  69.9994 265.0594 0003273 270.2389  89.8395 14.98330120 97757,6950.193,96.107,574.332,569.783,0.0
49152.0,STARLINK-3081,PAYLOAD,2023-06-10 13:10:31,14.98337005,0.0003402,69.999,263.7118,268.9019,91.175,5.9835e-05,6.21e-06,0.0,0 STARLINK-3081,1 49152U 21082Y   23161.54897215  .00000621  00000-0  59835-4 0  9991,2 49152  69.9990 263.7118 0003402 268.9019  91.1750 14.98337005 97826,6950.171,96.107,574.401,569.672,0.0
